{"type": "FeatureCollection", "features": [ {"type": "Feature", "properties": {"norad_id": 59598, "name": "GSAT0225 (GALILEO 29)", "group": "gnss", "lat": -51.673829823217005, "lon": 43.85244156698211, "alt_km": 23229.357968175595, "timestamp": "2025-12-18T14:52:08.269155+00:00", "meta": {"OBJECT_NAME": "GSAT0225 (GALILEO 29)", "OBJECT_ID": "2024-079A", "EPOCH": "2025-12-16T09:22:38.225280", "MEAN_MOTION": 1.70475011, "ECCENTRICITY": 0.00021396, "INCLINATION": 55.0038, "RA_OF_ASC_NODE": 106.1932, "ARG_OF_PERICENTER": 182.0305, "MEAN_ANOMALY": 176.7742, "EPHEMERIS_TYPE": 0, "CLASSIFICATION_TYPE": "U", "NORAD_CAT_ID": 59598, "ELEMENT_SET_NO": 999, "REV_AT_EPOCH": 1019, "BSTAR": 0, "MEAN_MOTION_DOT": -1e-07, "MEAN_MOTION_DDOT": 0}, "tle": {"line1": "1 59598U 24079A   25350.39072020 -.00000010  00000+0  00000+0 0  9996", "line2": "2 59598  55.0038 106.1932 0002139 182.0305 176.7742  1.70475011 10196"}}, "geometry": {"type": "Point", "coordinates": [43.85244156698211, -51.673829823217005]}}, {"type": "Feature", "properties": {"norad_id": 59600, "name": "GSAT0227 (GALILEO 30)", "group": "gnss", "lat": 4.695629034226598, "lon": -77.17605531225414, "alt_km": 23217.01932006488, "timestamp": "2025-12-18T14:52:08.269169+00:00", "meta": {"OBJECT_NAME": "GSAT0227 (GALILEO 30)", "OBJECT_ID": "2024-079C", "EPOCH": "2025-12-17T17:58:49.656576", "MEAN_MOTION": 1.70474875, "ECCENTRICITY": 0.00029873, "INCLINATION": 54.9997, "RA_OF_ASC_NODE": 106.1542, "ARG_OF_PERICENTER": 116.3364, "MEAN_ANOMALY": 243.6531, "EPHEMERIS_TYPE": 0, "CLASSIFICATION_TYPE": "U", "NORAD_CAT_ID": 59600, "ELEMENT_SET_NO": 999, "REV_AT_EPOCH": 1027, "BSTAR": 0, "MEAN_MOTION_DOT": -9e-08, "MEAN_MOTION_DDOT": 0}, "tle": {"line1": "1 59600U 24079C   25351.74918584 -.00000009  00000+0  00000+0 0  9992", "line2": "2 59600  54.9997 106.1542 0002987 116.3364 243.6531  1.70474875 10271"}}, "geometry": {"type": "Point", "coordinates": [-77.17605531225414, 4.695629034226598]}}, {"type": "Feature", "properties": {"norad_id": 61182, "name": "GSAT0232 (GALILEO 32)", "group": "gnss", "lat": 7.026386804943471, "lon": -128.81172162772458, "alt_km": 23226.796723639472, "timestamp": "2025-12-18T14:52:08.269181+00:00", "meta": {"OBJECT_NAME": "GSAT0232 (GALILEO 32)", "OBJECT_ID": "2024-167A", "EPOCH": "2025-12-18T07:28:16.745952", "MEAN_MOTION": 1.70473695, "ECCENTRICITY": 0.00018931, "INCLINATION": 55.2391, "RA_OF_ASC_NODE": 226.278, "ARG_OF_PERICENTER": 209.6785, "MEAN_ANOMALY": 329.812, "EPHEMERIS_TYPE": 0, "CLASSIFICATION_TYPE": "U", "NORAD_CAT_ID": 61182, "ELEMENT_SET_NO": 999, "REV_AT_EPOCH": 779, "BSTAR": 0, "MEAN_MOTION_DOT": 6.2e-07, "MEAN_MOTION_DDOT": 0}, "tle": {"line1": "1 61182U 24167A   25352.31130493  .00000062  00000+0  00000+0 0  9995", "line2": "2 61182  55.2391 226.2780 0001893 209.6785 329.8120  1.70473695  7790"}}, "geometry": {"type": "Point", "coordinates": [-128.81172162772458, 7.026386804943471]}}, {"type": "Feature", "properties": {"norad_id": 61183, "name": "GSAT0226 (GALILEO 31)", "group": "gnss", "lat": 44.61450818144786, "lon": 3.07565294347748, "alt_km": 23214.114961738796, "timestamp": "2025-12-18T14:52:08.269192+00:00", "meta": {"OBJECT_NAME": "GSAT0226 (GALILEO 31)", "OBJECT_ID": "2024-167B", "EPOCH": "2025-12-17T12:20:03.342912", "MEAN_MOTION": 1.70473772, "ECCENTRICITY": 9.56e-05, "INCLINATION": 55.2379, "RA_OF_ASC_NODE": 226.3053, "ARG_OF_PERICENTER": 107.5101, "MEAN_ANOMALY": 55.2715, "EPHEMERIS_TYPE": 0, "CLASSIFICATION_TYPE": "U", "NORAD_CAT_ID": 61183, "ELEMENT_SET_NO": 999, "REV_AT_EPOCH": 775, "BSTAR": 0, "MEAN_MOTION_DOT": 5.7e-07, "MEAN_MOTION_DDOT": 0}, "tle": {"line1": "1 61183U 24167B   25351.51392758  .00000057  00000+0  00000+0 0  9995", "line2": "2 61183  55.2379 226.3053 0000956 107.5101  55.2715  1.70473772  7750"}}, "geometry": {"type": "Point", "coordinates": [3.07565294347748, 44.61450818144786]}}, {"type": "Feature", "properties": {"norad_id": 61186, "name": "BEIDOU-3 M25 (C47)", "group": "gnss", "lat": 52.619630290537195, "lon": 16.731185336641136, "alt_km": 21533.243709450308, "timestamp": "2025-12-18T14:52:08.269205+00:00", "meta": {"OBJECT_NAME": "BEIDOU-3 M25 (C47)", "OBJECT_ID": "2024-168B", "EPOCH": "2025-12-18T00:39:01.420992", "MEAN_MOTION": 1.86230296, "ECCENTRICITY": 0.00054425, "INCLINATION": 54.6373, "RA_OF_ASC_NODE": 308.537, "ARG_OF_PERICENTER": 299.044, "MEAN_ANOMALY": 100.6746, "EPHEMERIS_TYPE": 0, "CLASSIFICATION_TYPE": "U", "NORAD_CAT_ID": 61186, "ELEMENT_SET_NO": 999, "REV_AT_EPOCH": 841, "BSTAR": 0, "MEAN_MOTION_DOT": -8.7e-07, "MEAN_MOTION_DDOT": 0}, "tle": {"line1": "1 61186U 24168B   25352.02709978 -.00000087  00000+0  00000+0 0  9996", "line2": "2 61186  54.6373 308.5370 0005442 299.0440 100.6746  1.86230296  8415"}}, "geometry": {"type": "Point", "coordinates": [16.731185336641136, 52.619630290537195]}}, {"type": "Feature", "properties": {"norad_id": 61187, "name": "BEIDOU-3 M27 (C49)", "group": "gnss", "lat": -25.528011942931002, "lon": 148.28755317941162, "alt_km": 21535.641697883904, "timestamp": "2025-12-18T14:52:08.269219+00:00", "meta": {"OBJECT_NAME": "BEIDOU-3 M27 (C49)", "OBJECT_ID": "2024-168C", "EPOCH": "2025-12-17T09:44:22.026336", "MEAN_MOTION": 1.86230445, "ECCENTRICITY": 0.00024936, "INCLINATION": 54.6333, "RA_OF_ASC_NODE": 308.542, "ARG_OF_PERICENTER": 338.9889, "MEAN_ANOMALY": 139.133, "EPHEMERIS_TYPE": 0, "CLASSIFICATION_TYPE": "U", "NORAD_CAT_ID": 61187, "ELEMENT_SET_NO": 999, "REV_AT_EPOCH": 587, "BSTAR": 0, "MEAN_MOTION_DOT": -9.1e-07, "MEAN_MOTION_DDOT": 0}, "tle": {"line1": "1 61187U 24168C   25351.40581049 -.00000091  00000+0  00000+0 0  9990", "line2": "2 61187  54.6333 308.5420 0002493 338.9889 139.1330  1.86230445  5870"}}, "geometry": {"type": "Point", "coordinates": [148.28755317941162, -25.528011942931002]}}, {"type": "Feature", "properties": {"norad_id": 62339, "name": "GPS BIII-7  (PRN 01)", "group": "gnss", "lat": -5.064370281840679, "lon": 165.0637373578777, "alt_km": 20213.770604003024, "timestamp": "2025-12-18T14:52:08.269230+00:00", "meta": {"OBJECT_NAME": "GPS BIII-7  (PRN 01)", "OBJECT_ID": "2024-242A", "EPOCH": "2025-12-18T02:37:38.581248", "MEAN_MOTION": 2.00568178, "ECCENTRICITY": 0.00125014, "INCLINATION": 54.9221, "RA_OF_ASC_NODE": 341.5227, "ARG_OF_PERICENTER": 345.673, "MEAN_ANOMALY": 192.2282, "EPHEMERIS_TYPE": 0, "CLASSIFICATION_TYPE": "U", "NORAD_CAT_ID": 62339, "ELEMENT_SET_NO": 999, "REV_AT_EPOCH": 762, "BSTAR": 0, "MEAN_MOTION_DOT": -8.6e-07, "MEAN_MOTION_DDOT": 0}, "tle": {"line1": "1 62339U 24242A   25352.10947432 -.00000086  00000+0  00000+0 0  9997", "line2": "2 62339  54.9221 341.5227 0012501 345.6730 192.2282  2.00568178  7627"}}, "geometry": {"type": "Point", "coordinates": [165.0637373578777, -5.064370281840679]}}, {"type": "Feature", "properties": {"norad_id": 62850, "name": "NVS-02 (IRNSS-1K)", "group": "gnss", "lat": -0.1915246785012732, "lon": 146.031242554754, "alt_km": 25728.78696252317, "timestamp": "2025-12-18T14:52:08.269242+00:00", "meta": {"OBJECT_NAME": "NVS-02 (IRNSS-1K)", "OBJECT_ID": "2025-020A", "EPOCH": "2025-12-18T01:29:52.441728", "MEAN_MOTION": 2.17599272, "ECCENTRICITY": 0.73474385, "INCLINATION": 20.9702, "RA_OF_ASC_NODE": 325.733, "ARG_OF_PERICENTER": 29.685, "MEAN_ANOMALY": 356.832, "EPHEMERIS_TYPE": 0, "CLASSIFICATION_TYPE": "U", "NORAD_CAT_ID": 62850, "ELEMENT_SET_NO": 999, "REV_AT_EPOCH": 703, "BSTAR": 0.00017861505, "MEAN_MOTION_DOT": 3.61e-06, "MEAN_MOTION_DDOT": 0}, "tle": {"line1": "1 62850U 25020A   25352.06241252  .00000361  00000+0  17862-3 0  9995", "line2": "2 62850  20.9702 325.7330 7347438  29.6850 356.8320  2.17599272  7033"}}, "geometry": {"type": "Point", "coordinates": [146.031242554754, -0.1915246785012732]}}, {"type": "Feature", "properties": {"norad_id": 62876, "name": "QZS-6 (QZSS/PRN 200)", "group": "gnss", "lat": 0.0001889182296084658, "lon": 41.05289693005817, "alt_km": 35789.2546005689, "timestamp": "2025-12-18T14:52:08.269254+00:00", "meta": {"OBJECT_NAME": "QZS-6 (QZSS/PRN 200)", "OBJECT_ID": "2025-023A", "EPOCH": "2025-12-18T04:57:38.619072", "MEAN_MOTION": 1.00273192, "ECCENTRICITY": 0.0001489, "INCLINATION": 0.0448, "RA_OF_ASC_NODE": 66.7035, "ARG_OF_PERICENTER": 210.4386, "MEAN_ANOMALY": 334.8756, "EPHEMERIS_TYPE": 0, "CLASSIFICATION_TYPE": "U", "NORAD_CAT_ID": 62876, "ELEMENT_SET_NO": 999, "REV_AT_EPOCH": 314, "BSTAR": 0, "MEAN_MOTION_DOT": -2.09e-06, "MEAN_MOTION_DDOT": 0}, "tle": {"line1": "1 62876U 25023A   25352.20669698 -.00000209  00000+0  00000+0 0  9994", "line2": "2 62876   0.0448  66.7035 0001489 210.4386 334.8756  1.00273192  3149"}}, "geometry": {"type": "Point", "coordinates": [41.05289693005817, 0.0001889182296084658]}}, {"type": "Feature", "properties": {"norad_id": 63130, "name": "COSMOS 2584 (704K)", "group": "gnss", "lat": 58.43222362192499, "lon": -150.40295746244564, "alt_km": 19129.40911043759, "timestamp": "2025-12-18T14:52:08.269266+00:00", "meta": {"OBJECT_NAME": "COSMOS 2584 (704K)", "OBJECT_ID": "2025-042A", "EPOCH": "2025-12-14T17:19:43.603680", "MEAN_MOTION": 2.13103043, "ECCENTRICITY": 0.00076907, "INCLINATION": 64.977, "RA_OF_ASC_NODE": 79.0784, "ARG_OF_PERICENTER": 217.9412, "MEAN_ANOMALY": 142.0178, "EPHEMERIS_TYPE": 0, "CLASSIFICATION_TYPE": "U", "NORAD_CAT_ID": 63130, "ELEMENT_SET_NO": 999, "REV_AT_EPOCH": 611, "BSTAR": 0, "MEAN_MOTION_DOT": -5.6e-07, "MEAN_MOTION_DDOT": 0}, "tle": {"line1": "1 63130U 25042A   25348.72203245 -.00000056  00000+0  00000+0 0  9993", "line2": "2 63130  64.9770  79.0784 0007690 217.9412 142.0178  2.13103043  6119"}}, "geometry": {"type": "Point", "coordinates": [-150.40295746244564, 58.43222362192499]}}]}